[{"OBJECT_NAME":"JILIN-1 GAOFEN 03D54","OBJECT_ID":"2022-155D","EPOCH":"2026-03-09T23:37:20.443296","MEAN_MOTION":15.68305206,"ECCENTRICITY":0.00027254,"INCLINATION":97.6021,"RA_OF_ASC_NODE":211.7883,"ARG_OF_PERICENTER":319.8773,"MEAN_ANOMALY":40.2286,"EPHEMERIS_TYPE":0,"CLASSIFICATION_TYPE":"U","NORAD_CAT_ID":54254,"ELEMENT_SET_NO":999,"REV_AT_EPOCH":18463,"BSTAR":0.00092591646,"MEAN_MOTION_DOT":0.00104667,"MEAN_MOTION_DDOT":0},{"OBJECT_NAME":"STARLINK-11246 [DTC]","OBJECT_ID":"2024-155J","EPOCH":"2026-03-09T22:25:39.556704","MEAN_MOTION":15.69707649,"ECCENTRICITY":9.042e-5,"INCLINATION":53.1579,"RA_OF_ASC_NODE":339.8351,"ARG_OF_PERICENTER":131.6847,"MEAN_ANOMALY":228.4249,"EPHEMERIS_TYPE":0,"CLASSIFICATION_TYPE":"U","NORAD_CAT_ID":60932,"ELEMENT_SET_NO":999,"REV_AT_EPOCH":8844,"BSTAR":2.1882903e-5,"MEAN_MOTION_DOT":2.063e-5,"MEAN_MOTION_DDOT":0}]
